ATLAS CENTAUR 2         
1 00694U 63047A   26038.14641494  .00001734  00000+0  19900-3 0  9997
2 00694  30.3559   6.3208 0548114 171.1513 189.9213 14.11982970127305
THOR AGENA D R/B        
1 00733U 64002A   26038.03104616  .00000344  00000+0  14002-3 0  9995
2 00733  99.1229  49.6990 0032711 349.5241  10.5257 14.34000995233908
SL-3 R/B                
1 00877U 64053B   26038.16993470  .00000483  00000+0  11765-3 0  9995
2 00877  65.0762  60.7116 0078228 301.9102  57.4405 14.61335793262337
SL-8 R/B                
1 02802U 67045B   26038.19497314  .00000392  00000+0  11597-3 0  9990
2 02802  74.0100  45.0375 0063025  59.0465 301.6865 14.45592695 84613
SL-8 R/B                
1 03230U 68040B   26038.02734663  .00005021  00000+0  37322-3 0  9993
2 03230  74.0325  16.3312 0025452 209.1683 150.8085 15.03024030 85406
OAO 2                   
1 03597U 68110A   26038.15237998  .00000399  00000+0  11272-3 0  9999
2 03597  34.9936  75.7156 0005969 309.3087  50.7074 14.47289100 14677
ISIS 1                  
1 03669U 69009A   26037.82859485  .00000442  00000+0  30305-3 0  9998
2 03669  88.4554 158.6712 1707837 151.4301 219.2205 11.30400927345042
SERT 2                  
1 04327U 70009A   26037.84433613  .00000050  00000+0  12517-3 0  9995
2 04327  99.2721 342.6326 0004051 240.4332 178.7127 13.58726656775700
SL-3 R/B                
1 05118U 71028B   26038.18475342  .00034341  00000+0  44149-3 0  9995
2 05118  81.2349  89.6407 0017567  41.9114 318.3479 15.58723954983918
ASTEX 1                 
1 05560U 71089A   26038.19760493  .00000851  00000+0  21658-3 0  9997
2 05560  92.7152 141.8943 0015557 179.4628 180.6598 14.50733468857888
SL-8 R/B                
1 05730U 71119B   26037.96275727  .00013169  00000+0  68336-3 0  9995
2 05730  73.8852 233.1150 0553975 206.0517 151.1779 14.36922346651070
OAO 3 (COPERNICUS)      
1 06153U 72065A   26037.27426090  .00000579  00000+0  12318-3 0  9991
2 06153  35.0054 116.2956 0007251 264.9979 137.3252 14.59969687841601
