CCSDS_OMM_VERS = 2.0
CREATION_DATE  = 
ORIGINATOR     = 

OBJECT_NAME    = ATLAS CENTAUR 2
OBJECT_ID      = 1963-047A
CENTER_NAME    = EARTH
REF_FRAME      = TEME
TIME_SYSTEM    = UTC
MEAN_ELEMENT_THEORY = SGP/SGP4

EPOCH          = 2026-02-07T03:30:50.250816
MEAN_MOTION    = 14.11982970
ECCENTRICITY   = .0548114
INCLINATION    = 30.3559
RA_OF_ASC_NODE = 6.3208
ARG_OF_PERICENTER = 171.1513
MEAN_ANOMALY   = 189.9213

EPHEMERIS_TYPE = 0
CLASSIFICATION_TYPE = U
NORAD_CAT_ID   = 694
ELEMENT_SET_NO = 999
REV_AT_EPOCH   = 12730
BSTAR          = .199E-3
MEAN_MOTION_DOT = .1734E-4
MEAN_MOTION_DDOT = 0

CCSDS_OMM_VERS = 2.0
CREATION_DATE  = 
ORIGINATOR     = 

OBJECT_NAME    = THOR AGENA D R/B
OBJECT_ID      = 1964-002A
CENTER_NAME    = EARTH
REF_FRAME      = TEME
TIME_SYSTEM    = UTC
MEAN_ELEMENT_THEORY = SGP/SGP4

EPOCH          = 2026-02-07T00:44:42.388224
MEAN_MOTION    = 14.34000995
ECCENTRICITY   = .0032711
INCLINATION    = 99.1229
RA_OF_ASC_NODE = 49.6990
ARG_OF_PERICENTER = 349.5241
MEAN_ANOMALY   = 10.5257

EPHEMERIS_TYPE = 0
CLASSIFICATION_TYPE = U
NORAD_CAT_ID   = 733
ELEMENT_SET_NO = 999
REV_AT_EPOCH   = 23390
BSTAR          = .14002E-3
MEAN_MOTION_DOT = .344E-5
MEAN_MOTION_DDOT = 0

CCSDS_OMM_VERS = 2.0
CREATION_DATE  = 
ORIGINATOR     = 

OBJECT_NAME    = SL-3 R/B
OBJECT_ID      = 1964-053B
CENTER_NAME    = EARTH
REF_FRAME      = TEME
TIME_SYSTEM    = UTC
MEAN_ELEMENT_THEORY = SGP/SGP4

EPOCH          = 2026-02-07T04:04:42.358080
MEAN_MOTION    = 14.61335793
ECCENTRICITY   = .0078228
INCLINATION    = 65.0762
RA_OF_ASC_NODE = 60.7116
ARG_OF_PERICENTER = 301.9102
MEAN_ANOMALY   = 57.4405

EPHEMERIS_TYPE = 0
CLASSIFICATION_TYPE = U
NORAD_CAT_ID   = 877
ELEMENT_SET_NO = 999
REV_AT_EPOCH   = 26233
BSTAR          = .11765E-3
MEAN_MOTION_DOT = .483E-5
MEAN_MOTION_DDOT = 0

CCSDS_OMM_VERS = 2.0
CREATION_DATE  = 
ORIGINATOR     = 

OBJECT_NAME    = SL-8 R/B
OBJECT_ID      = 1967-045B
CENTER_NAME    = EARTH
REF_FRAME      = TEME
TIME_SYSTEM    = UTC
MEAN_ELEMENT_THEORY = SGP/SGP4

EPOCH          = 2026-02-07T04:40:45.679296
MEAN_MOTION    = 14.45592695
ECCENTRICITY   = .0063025
INCLINATION    = 74.0100
RA_OF_ASC_NODE = 45.0375
ARG_OF_PERICENTER = 59.0465
MEAN_ANOMALY   = 301.6865

EPHEMERIS_TYPE = 0
CLASSIFICATION_TYPE = U
NORAD_CAT_ID   = 2802
ELEMENT_SET_NO = 999
REV_AT_EPOCH   = 8461
BSTAR          = .11597E-3
MEAN_MOTION_DOT = .392E-5
MEAN_MOTION_DDOT = 0

CCSDS_OMM_VERS = 2.0
CREATION_DATE  = 
ORIGINATOR     = 

OBJECT_NAME    = SL-8 R/B
OBJECT_ID      = 1968-040B
CENTER_NAME    = EARTH
REF_FRAME      = TEME
TIME_SYSTEM    = UTC
MEAN_ELEMENT_THEORY = SGP/SGP4

EPOCH          = 2026-02-07T00:39:22.748832
MEAN_MOTION    = 15.03024030
ECCENTRICITY   = .0025452
INCLINATION    = 74.0325
RA_OF_ASC_NODE = 16.3312
ARG_OF_PERICENTER = 209.1683
MEAN_ANOMALY   = 150.8085

EPHEMERIS_TYPE = 0
CLASSIFICATION_TYPE = U
NORAD_CAT_ID   = 3230
ELEMENT_SET_NO = 999
REV_AT_EPOCH   = 8540
BSTAR          = .37322E-3
MEAN_MOTION_DOT = .5021E-4
MEAN_MOTION_DDOT = 0

CCSDS_OMM_VERS = 2.0
CREATION_DATE  = 
ORIGINATOR     = 

OBJECT_NAME    = OAO 2
OBJECT_ID      = 1968-110A
CENTER_NAME    = EARTH
REF_FRAME      = TEME
TIME_SYSTEM    = UTC
MEAN_ELEMENT_THEORY = SGP/SGP4

EPOCH          = 2026-02-07T03:39:25.630272
MEAN_MOTION    = 14.47289100
ECCENTRICITY   = .0005969
INCLINATION    = 34.9936
RA_OF_ASC_NODE = 75.7156
ARG_OF_PERICENTER = 309.3087
MEAN_ANOMALY   = 50.7074

EPHEMERIS_TYPE = 0
CLASSIFICATION_TYPE = U
NORAD_CAT_ID   = 3597
ELEMENT_SET_NO = 999
REV_AT_EPOCH   = 1467
BSTAR          = .11272E-3
MEAN_MOTION_DOT = .399E-5
MEAN_MOTION_DDOT = 0

CCSDS_OMM_VERS = 2.0
CREATION_DATE  = 
ORIGINATOR     = 

OBJECT_NAME    = ISIS 1
OBJECT_ID      = 1969-009A
CENTER_NAME    = EARTH
REF_FRAME      = TEME
TIME_SYSTEM    = UTC
MEAN_ELEMENT_THEORY = SGP/SGP4

EPOCH          = 2026-02-06T19:53:10.595040
MEAN_MOTION    = 11.30400927
ECCENTRICITY   = .17078375
INCLINATION    = 88.4554
RA_OF_ASC_NODE = 158.6712
ARG_OF_PERICENTER = 151.4301
MEAN_ANOMALY   = 219.2205

EPHEMERIS_TYPE = 0
CLASSIFICATION_TYPE = U
NORAD_CAT_ID   = 3669
ELEMENT_SET_NO = 999
REV_AT_EPOCH   = 34504
BSTAR          = .30305158E-3
MEAN_MOTION_DOT = .442E-5
MEAN_MOTION_DDOT = 0

CCSDS_OMM_VERS = 2.0
CREATION_DATE  = 
ORIGINATOR     = 

OBJECT_NAME    = SERT 2
OBJECT_ID      = 1970-009A
CENTER_NAME    = EARTH
REF_FRAME      = TEME
TIME_SYSTEM    = UTC
MEAN_ELEMENT_THEORY = SGP/SGP4

EPOCH          = 2026-02-06T20:15:50.641632
MEAN_MOTION    = 13.58726656
ECCENTRICITY   = .00040513
INCLINATION    = 99.2721
RA_OF_ASC_NODE = 342.6326
ARG_OF_PERICENTER = 240.4332
MEAN_ANOMALY   = 178.7127

EPHEMERIS_TYPE = 0
CLASSIFICATION_TYPE = U
NORAD_CAT_ID   = 4327
ELEMENT_SET_NO = 999
REV_AT_EPOCH   = 77570
BSTAR          = .12516696E-3
MEAN_MOTION_DOT = .5E-6
MEAN_MOTION_DDOT = 0

CCSDS_OMM_VERS = 2.0
CREATION_DATE  = 
ORIGINATOR     = 

OBJECT_NAME    = SL-3 R/B
OBJECT_ID      = 1971-028B
CENTER_NAME    = EARTH
REF_FRAME      = TEME
TIME_SYSTEM    = UTC
MEAN_ELEMENT_THEORY = SGP/SGP4

EPOCH          = 2026-02-07T04:26:02.695488
MEAN_MOTION    = 15.58723954
ECCENTRICITY   = .0017567
INCLINATION    = 81.2349
RA_OF_ASC_NODE = 89.6407
ARG_OF_PERICENTER = 41.9114
MEAN_ANOMALY   = 318.3479

EPHEMERIS_TYPE = 0
CLASSIFICATION_TYPE = U
NORAD_CAT_ID   = 5118
ELEMENT_SET_NO = 999
REV_AT_EPOCH   = 98391
BSTAR          = .44149E-3
MEAN_MOTION_DOT = .34341E-3
MEAN_MOTION_DDOT = 0

CCSDS_OMM_VERS = 2.0
CREATION_DATE  = 
ORIGINATOR     = 

OBJECT_NAME    = ASTEX 1
OBJECT_ID      = 1971-089A
CENTER_NAME    = EARTH
REF_FRAME      = TEME
TIME_SYSTEM    = UTC
MEAN_ELEMENT_THEORY = SGP/SGP4

EPOCH          = 2026-02-07T04:44:33.065952
MEAN_MOTION    = 14.50733468
ECCENTRICITY   = .0015557
INCLINATION    = 92.7152
RA_OF_ASC_NODE = 141.8943
ARG_OF_PERICENTER = 179.4628
MEAN_ANOMALY   = 180.6598

EPHEMERIS_TYPE = 0
CLASSIFICATION_TYPE = U
NORAD_CAT_ID   = 5560
ELEMENT_SET_NO = 999
REV_AT_EPOCH   = 85788
BSTAR          = .21658E-3
MEAN_MOTION_DOT = .851E-5
MEAN_MOTION_DDOT = 0

CCSDS_OMM_VERS = 2.0
CREATION_DATE  = 
ORIGINATOR     = 

OBJECT_NAME    = SL-8 R/B
OBJECT_ID      = 1971-119B
CENTER_NAME    = EARTH
REF_FRAME      = TEME
TIME_SYSTEM    = UTC
MEAN_ELEMENT_THEORY = SGP/SGP4

EPOCH          = 2026-02-06T23:06:22.228128
MEAN_MOTION    = 14.36922346
ECCENTRICITY   = .0553975
INCLINATION    = 73.8852
RA_OF_ASC_NODE = 233.1150
ARG_OF_PERICENTER = 206.0517
MEAN_ANOMALY   = 151.1779

EPHEMERIS_TYPE = 0
CLASSIFICATION_TYPE = U
NORAD_CAT_ID   = 5730
ELEMENT_SET_NO = 999
REV_AT_EPOCH   = 65107
BSTAR          = .68336E-3
MEAN_MOTION_DOT = .13169E-3
MEAN_MOTION_DDOT = 0

CCSDS_OMM_VERS = 2.0
CREATION_DATE  = 
ORIGINATOR     = 

OBJECT_NAME    = OAO 3 (COPERNICUS)
OBJECT_ID      = 1972-065A
CENTER_NAME    = EARTH
REF_FRAME      = TEME
TIME_SYSTEM    = UTC
MEAN_ELEMENT_THEORY = SGP/SGP4

EPOCH          = 2026-02-06T06:34:56.141760
MEAN_MOTION    = 14.59969687
ECCENTRICITY   = .00072511
INCLINATION    = 35.0054
RA_OF_ASC_NODE = 116.2956
ARG_OF_PERICENTER = 264.9979
MEAN_ANOMALY   = 137.3252

EPHEMERIS_TYPE = 0
CLASSIFICATION_TYPE = U
NORAD_CAT_ID   = 6153
ELEMENT_SET_NO = 999
REV_AT_EPOCH   = 84160
BSTAR          = .12317777E-3
MEAN_MOTION_DOT = .579E-5
MEAN_MOTION_DDOT = 0

